[{"OBJECT_NAME":"STARLINK-6359","OBJECT_ID":"2023-099U","EPOCH":"2026-03-09T22:00:01.999584","MEAN_MOTION":15.13701843,"ECCENTRICITY":0.00012087,"INCLINATION":42.9993,"RA_OF_ASC_NODE":246.9372,"ARG_OF_PERICENTER":257.6436,"MEAN_ANOMALY":334.656,"EPHEMERIS_TYPE":0,"CLASSIFICATION_TYPE":"U","NORAD_CAT_ID":57346,"ELEMENT_SET_NO":999,"REV_AT_EPOCH":578,"BSTAR":0.0068353409,"MEAN_MOTION_DOT":0.00127287,"MEAN_MOTION_DDOT":0},{"OBJECT_NAME":"OBJECT E","OBJECT_ID":"2024-105E","EPOCH":"2026-03-10T00:03:44.143200","MEAN_MOTION":15.19028023,"ECCENTRICITY":0.00116899,"INCLINATION":97.5872,"RA_OF_ASC_NODE":85.441,"ARG_OF_PERICENTER":201.8034,"MEAN_ANOMALY":158.2704,"EPHEMERIS_TYPE":0,"CLASSIFICATION_TYPE":"U","NORAD_CAT_ID":59921,"ELEMENT_SET_NO":999,"REV_AT_EPOCH":9809,"BSTAR":0.00030074401,"MEAN_MOTION_DOT":6.239e-5,"MEAN_MOTION_DDOT":0}]
